[{"OBJECT_NAME":"GOES 19","OBJECT_ID":"2024-119A","EPOCH":"2026-03-05T18:46:14.210688","MEAN_MOTION":1.00271654,"ECCENTRICITY":0.0001053,"INCLINATION":0.0118,"RA_OF_ASC_NODE":336.1485,"ARG_OF_PERICENTER":50.3792,"MEAN_ANOMALY":343.3402,"EPHEMERIS_TYPE":0,"CLASSIFICATION_TYPE":"U","NORAD_CAT_ID":60133,"ELEMENT_SET_NO":999,"REV_AT_EPOCH":592,"BSTAR":0,"MEAN_MOTION_DOT":-2.55e-6,"MEAN_MOTION_DDOT":0},{"OBJECT_NAME":"FENGYUN 3H","OBJECT_ID":"2025-219A","EPOCH":"2026-03-05T19:24:24.742944","MEAN_MOTION":14.19931437,"ECCENTRICITY":0.0001369,"INCLINATION":98.6682,"RA_OF_ASC_NODE":7.6374,"ARG_OF_PERICENTER":63.7754,"MEAN_ANOMALY":296.3563,"EPHEMERIS_TYPE":0,"CLASSIFICATION_TYPE":"U","NORAD_CAT_ID":65815,"ELEMENT_SET_NO":999,"REV_AT_EPOCH":2271,"BSTAR":8.5094e-5,"MEAN_MOTION_DOT":1.37e-6,"MEAN_MOTION_DDOT":0}]
