GOES 19                 
1 60133U 24119A   26064.78210892 -.00000255  00000+0  00000+0 0  9996
2 60133   0.0118 336.1485 0001053  50.3792 343.3402  1.00271654  5921
FENGYUN 3H              
1 65815U 25219A   26064.80861971  .00000137  00000+0  85094-4 0  9992
2 65815  98.6682   7.6374 0001369  63.7754 296.3563 14.19931437 22712
